[{"OBJECT_NAME":"GEESAT-2 08","OBJECT_ID":"2024-023H","EPOCH":"2026-03-09T22:09:20.034720","MEAN_MOTION":14.82872022,"ECCENTRICITY":0.00045,"INCLINATION":49.9882,"RA_OF_ASC_NODE":92.913,"ARG_OF_PERICENTER":319.9295,"MEAN_ANOMALY":40.131,"EPHEMERIS_TYPE":0,"CLASSIFICATION_TYPE":"U","NORAD_CAT_ID":58912,"ELEMENT_SET_NO":999,"REV_AT_EPOCH":11418,"BSTAR":0.0003777251,"MEAN_MOTION_DOT":2.869e-5,"MEAN_MOTION_DDOT":0},{"OBJECT_NAME":"KUIPER-00057","OBJECT_ID":"2025-134T","EPOCH":"2026-03-09T17:50:26.275488","MEAN_MOTION":14.83766269,"ECCENTRICITY":0.00040733,"INCLINATION":51.8993,"RA_OF_ASC_NODE":230.4357,"ARG_OF_PERICENTER":273.9501,"MEAN_ANOMALY":86.0998,"EPHEMERIS_TYPE":0,"CLASSIFICATION_TYPE":"U","NORAD_CAT_ID":64517,"ELEMENT_SET_NO":999,"REV_AT_EPOCH":4011,"BSTAR":0.00072082033,"MEAN_MOTION_DOT":5.801e-5,"MEAN_MOTION_DDOT":0}]
